{"type":"FeatureCollection","crs":{"type":"name","properties":{"name":"urn:ogc:def:crs:EPSG::4326"}},"features":[{"type":"Feature","geometry":{"type":"Point","coordinates":[-99.18675,19.40219]},"properties":{"id":"(-99.18675, 19.40219)","nombre":"Tacubaya","indicador":"betweenness","layer":"b_puntos","sistema":"METRO","alcaldia_municipio":"Miguel Hidalgo","es_cetram":false,"betweenness_centrality":0.155744,"rank":1,"b_normalizado":1.0,"categoria_b":"top5","banda_color":"#C0392B"}},{"type":"Feature","geometry":{"type":"Point","coordinates":[-99.074517526,19.317618602]},"properties":{"id":"(-99.074517526, 19.317618602)","nombre":"Periférico Oriente/Tláhuac","indicador":"betweenness","layer":"b_puntos","sistema":"METRO","alcaldia_municipio":"Iztapalapa","es_cetram":false,"betweenness_centrality":0.145014,"rank":2,"b_normalizado":0.9311,"categoria_b":"top5","banda_color":"#C0392B"}},{"type":"Feature","geometry":{"type":"Point","coordinates":[-99.14678,19.43738]},"properties":{"id":"(-99.14678, 19.43738)","nombre":"Hidalgo","indicador":"betweenness","layer":"b_puntos","sistema":"METRO","alcaldia_municipio":"Cuauhtémoc","es_cetram":false,"betweenness_centrality":0.122779,"rank":3,"b_normalizado":0.7883,"categoria_b":"top5","banda_color":"#C0392B"}},{"type":"Feature","geometry":{"type":"Point","coordinates":[-99.19888233,19.355731681]},"properties":{"id":"(-99.19888233, 19.355731681)","nombre":"Rómulo O'Farril","indicador":"betweenness","layer":"b_puntos","sistema":"METRO","alcaldia_municipio":"Álvaro Obregón","es_cetram":false,"betweenness_centrality":0.122195,"rank":4,"b_normalizado":0.7846,"categoria_b":"top5","banda_color":"#C0392B"}},{"type":"Feature","geometry":{"type":"Point","coordinates":[-99.220328644,19.32092595]},"properties":{"id":"(-99.220328644, 19.32092595)","nombre":"Luis Cabrera","indicador":"betweenness","layer":"b_puntos","sistema":"METRO","alcaldia_municipio":"La Magdalena Contreras","es_cetram":false,"betweenness_centrality":0.120787,"rank":5,"b_normalizado":0.7755,"categoria_b":"top5","banda_color":"#C0392B"}},{"type":"Feature","geometry":{"type":"Point","coordinates":[-99.19120546,19.361795526]},"properties":{"id":"(-99.19120546, 19.361795526)","nombre":"Barranca del Muerto/Periférico","indicador":"betweenness","layer":"b_puntos","sistema":"METRO","alcaldia_municipio":"Álvaro Obregón","es_cetram":false,"betweenness_centrality":0.119895,"rank":6,"b_normalizado":0.7698,"categoria_b":"top6_15","banda_color":"#E67E22"}},{"type":"Feature","geometry":{"type":"Point","coordinates":[-99.20203787,19.347926363]},"properties":{"id":"(-99.20203787, 19.347926363)","nombre":"Desierto de los Leones","indicador":"betweenness","layer":"b_puntos","sistema":"METRO","alcaldia_municipio":"Álvaro Obregón","es_cetram":false,"betweenness_centrality":0.119116,"rank":7,"b_normalizado":0.7648,"categoria_b":"top6_15","banda_color":"#E67E22"}},{"type":"Feature","geometry":{"type":"Point","coordinates":[-99.062654986,19.34508576]},"properties":{"id":"(-99.062654986, 19.34508576)","nombre":"Constitución de 1917/Periférico","indicador":"betweenness","layer":"b_puntos","sistema":"METRO","alcaldia_municipio":"Iztapalapa","es_cetram":false,"betweenness_centrality":0.117453,"rank":8,"b_normalizado":0.7541,"categoria_b":"top6_15","banda_color":"#E67E22"}},{"type":"Feature","geometry":{"type":"Point","coordinates":[-99.067599524,19.328377434]},"properties":{"id":"(-99.067599524, 19.328377434)","nombre":"Iztapalapa","indicador":"betweenness","layer":"b_puntos","sistema":"METRO","alcaldia_municipio":"Iztapalapa","es_cetram":false,"betweenness_centrality":0.113424,"rank":9,"b_normalizado":0.7283,"categoria_b":"top6_15","banda_color":"#E67E22"}},{"type":"Feature","geometry":{"type":"Point","coordinates":[-99.115187193,19.289618298]},"properties":{"id":"(-99.115187193, 19.289618298)","nombre":"Muyuguarda/Cafetales","indicador":"betweenness","layer":"b_puntos","sistema":"METRO","alcaldia_municipio":"Xochimilco","es_cetram":false,"betweenness_centrality":0.112375,"rank":10,"b_normalizado":0.7215,"categoria_b":"top6_15","banda_color":"#E67E22"}},{"type":"Feature","geometry":{"type":"Point","coordinates":[-99.064254049,19.339142896]},"properties":{"id":"(-99.064254049, 19.339142896)","nombre":"5 de Mayo","indicador":"betweenness","layer":"b_puntos","sistema":"METRO","alcaldia_municipio":"Iztapalapa","es_cetram":false,"betweenness_centrality":0.111059,"rank":11,"b_normalizado":0.7131,"categoria_b":"top6_15","banda_color":"#E67E22"}},{"type":"Feature","geometry":{"type":"Point","coordinates":[-99.203232229,19.340889452]},"properties":{"id":"(-99.203232229, 19.340889452)","nombre":"Toluca","indicador":"betweenness","layer":"b_puntos","sistema":"METRO","alcaldia_municipio":"Álvaro Obregón","es_cetram":false,"betweenness_centrality":0.111008,"rank":12,"b_normalizado":0.7128,"categoria_b":"top6_15","banda_color":"#E67E22"}},{"type":"Feature","geometry":{"type":"Point","coordinates":[-99.10221507,19.29513739]},"properties":{"id":"(-99.10221507, 19.29513739)","nombre":"Canal Nacional","indicador":"betweenness","layer":"b_puntos","sistema":"METRO","alcaldia_municipio":"Xochimilco","es_cetram":false,"betweenness_centrality":0.110997,"rank":13,"b_normalizado":0.7127,"categoria_b":"top6_15","banda_color":"#E67E22"}},{"type":"Feature","geometry":{"type":"Point","coordinates":[-99.14906,19.42648]},"properties":{"id":"(-99.14906, 19.42648)","nombre":"Balderas","indicador":"betweenness","layer":"b_puntos","sistema":"METRO","alcaldia_municipio":"Cuauhtémoc","es_cetram":false,"betweenness_centrality":0.110683,"rank":14,"b_normalizado":0.7107,"categoria_b":"top6_15","banda_color":"#E67E22"}},{"type":"Feature","geometry":{"type":"Point","coordinates":[-99.094240782,19.298486669]},"properties":{"id":"(-99.094240782, 19.298486669)","nombre":"Cuemanco","indicador":"betweenness","layer":"b_puntos","sistema":"METRO","alcaldia_municipio":"Xochimilco","es_cetram":false,"betweenness_centrality":0.109687,"rank":15,"b_normalizado":0.7043,"categoria_b":"top6_15","banda_color":"#E67E22"}},{"type":"Feature","geometry":{"type":"Point","coordinates":[-99.08,19.31]},"properties":{"id":"(-99.08, 19.31)","nombre":"Estrella del Sur","indicador":"betweenness","layer":"b_puntos","sistema":"METRO","alcaldia_municipio":"Iztapalapa","es_cetram":false,"betweenness_centrality":0.10859,"rank":16,"b_normalizado":0.6972,"categoria_b":"top16_50","banda_color":"#2980B9"}},{"type":"Feature","geometry":{"type":"Point","coordinates":[-99.0845,19.304]},"properties":{"id":"(-99.0845, 19.304)","nombre":"Culhuacán","indicador":"betweenness","layer":"b_puntos","sistema":"METRO","alcaldia_municipio":"Iztapalapa","es_cetram":false,"betweenness_centrality":0.108509,"rank":17,"b_normalizado":0.6967,"categoria_b":"top16_50","banda_color":"#2980B9"}},{"type":"Feature","geometry":{"type":"Point","coordinates":[-99.210965915,19.330670787]},"properties":{"id":"(-99.210965915, 19.330670787)","nombre":"Glorieta Monumental","indicador":"betweenness","layer":"b_puntos","sistema":"METRO","alcaldia_municipio":"Álvaro Obregón","es_cetram":false,"betweenness_centrality":0.108502,"rank":18,"b_normalizado":0.6967,"categoria_b":"top16_50","banda_color":"#2980B9"}},{"type":"Feature","geometry":{"type":"Point","coordinates":[-99.087,19.301]},"properties":{"id":"(-99.087, 19.301)","nombre":"Atlalilco/Periférico","indicador":"betweenness","layer":"b_puntos","sistema":"METRO","alcaldia_municipio":"Iztapalapa","es_cetram":false,"betweenness_centrality":0.108436,"rank":19,"b_normalizado":0.6962,"categoria_b":"top16_50","banda_color":"#2980B9"}},{"type":"Feature","geometry":{"type":"Point","coordinates":[-99.09,19.2995]},"properties":{"id":"(-99.09, 19.2995)","nombre":"Canal de Chalco/Periférico","indicador":"betweenness","layer":"b_puntos","sistema":"METRO","alcaldia_municipio":"Tláhuac","es_cetram":false,"betweenness_centrality":0.108366,"rank":20,"b_normalizado":0.6958,"categoria_b":"top16_50","banda_color":"#2980B9"}},{"type":"Feature","geometry":{"type":"Point","coordinates":[-99.18758,19.37626]},"properties":{"id":"(-99.18758, 19.37626)","nombre":"Mixcoac","indicador":"betweenness","layer":"b_puntos","sistema":"METRO","alcaldia_municipio":"Benito Juárez","es_cetram":false,"betweenness_centrality":0.108269,"rank":21,"b_normalizado":0.6952,"categoria_b":"top16_50","banda_color":"#2980B9"}},{"type":"Feature","geometry":{"type":"Point","coordinates":[-99.16852,19.40593]},"properties":{"id":"(-99.16852, 19.40593)","nombre":"Chilpancingo","indicador":"betweenness","layer":"b_puntos","sistema":"METRO","alcaldia_municipio":"Cuauhtémoc","es_cetram":false,"betweenness_centrality":0.10802,"rank":22,"b_normalizado":0.6936,"categoria_b":"top16_50","banda_color":"#2980B9"}},{"type":"Feature","geometry":{"type":"Point","coordinates":[-99.208994308,19.334297058]},"properties":{"id":"(-99.208994308, 19.334297058)","nombre":"Parque el Batán","indicador":"betweenness","layer":"b_puntos","sistema":"METRO","alcaldia_municipio":"Álvaro Obregón","es_cetram":false,"betweenness_centrality":0.106578,"rank":23,"b_normalizado":0.6843,"categoria_b":"top16_50","banda_color":"#2980B9"}},{"type":"Feature","geometry":{"type":"Point","coordinates":[-99.14463,19.40722]},"properties":{"id":"(-99.14463, 19.40722)","nombre":"Lázaro Cárdenas","indicador":"betweenness","layer":"b_puntos","sistema":"METRO","alcaldia_municipio":"Cuauhtémoc","es_cetram":false,"betweenness_centrality":0.106505,"rank":24,"b_normalizado":0.6838,"categoria_b":"top16_50","banda_color":"#2980B9"}},{"type":"Feature","geometry":{"type":"Point","coordinates":[-99.212048351,19.328610686]},"properties":{"id":"(-99.212048351, 19.328610686)","nombre":"Tarasquillo","indicador":"betweenness","layer":"b_puntos","sistema":"METRO","alcaldia_municipio":"Álvaro Obregón","es_cetram":false,"betweenness_centrality":0.105915,"rank":25,"b_normalizado":0.6801,"categoria_b":"top16_50","banda_color":"#2980B9"}},{"type":"Feature","geometry":{"type":"Point","coordinates":[-99.21566038,19.324062314]},"properties":{"id":"(-99.21566038, 19.324062314)","nombre":"San Antonio Elevado","indicador":"betweenness","layer":"b_puntos","sistema":"METRO","alcaldia_municipio":"La Magdalena Contreras","es_cetram":false,"betweenness_centrality":0.102615,"rank":26,"b_normalizado":0.6589,"categoria_b":"top16_50","banda_color":"#2980B9"}},{"type":"Feature","geometry":{"type":"Point","coordinates":[-99.188913461,19.39097452]},"properties":{"id":"(-99.188913461, 19.39097452)","nombre":"San Pedro de los Pinos/Periférico","indicador":"betweenness","layer":"b_puntos","sistema":"METRO","alcaldia_municipio":"Benito Juárez","es_cetram":false,"betweenness_centrality":0.099763,"rank":27,"b_normalizado":0.6406,"categoria_b":"top16_50","banda_color":"#2980B9"}},{"type":"Feature","geometry":{"type":"Point","coordinates":[-99.215830905,19.307569651]},"properties":{"id":"(-99.215830905, 19.307569651)","nombre":"Santa Teresa","indicador":"betweenness","layer":"b_puntos","sistema":"METRO","alcaldia_municipio":"Álvaro Obregón","es_cetram":false,"betweenness_centrality":0.097527,"rank":28,"b_normalizado":0.6262,"categoria_b":"top16_50","banda_color":"#2980B9"}},{"type":"Feature","geometry":{"type":"Point","coordinates":[-99.21991935,19.312990572]},"properties":{"id":"(-99.21991935, 19.312990572)","nombre":"Ángeles","indicador":"betweenness","layer":"b_puntos","sistema":"METRO","alcaldia_municipio":"La Magdalena Contreras","es_cetram":false,"betweenness_centrality":0.097011,"rank":29,"b_normalizado":0.6229,"categoria_b":"top16_50","banda_color":"#2980B9"}},{"type":"Feature","geometry":{"type":"Point","coordinates":[-99.191252619,19.384772416]},"properties":{"id":"(-99.191252619, 19.384772416)","nombre":"Distribuidor Vial San Antonio","indicador":"betweenness","layer":"b_puntos","sistema":"METRO","alcaldia_municipio":"Álvaro Obregón","es_cetram":false,"betweenness_centrality":0.096567,"rank":30,"b_normalizado":0.62,"categoria_b":"top16_50","banda_color":"#2980B9"}},{"type":"Feature","geometry":{"type":"Point","coordinates":[-99.152082688,19.290400734]},"properties":{"id":"(-99.152082688, 19.290400734)","nombre":"Zona de Hospitales","indicador":"betweenness","layer":"b_puntos","sistema":"METRO","alcaldia_municipio":"Tlalpan","es_cetram":false,"betweenness_centrality":0.095606,"rank":31,"b_normalizado":0.6139,"categoria_b":"top16_50","banda_color":"#2980B9"}},{"type":"Feature","geometry":{"type":"Point","coordinates":[-99.221673835,19.318655355]},"properties":{"id":"(-99.221673835, 19.318655355)","nombre":"Suiza","indicador":"betweenness","layer":"b_puntos","sistema":"METRO","alcaldia_municipio":"La Magdalena Contreras","es_cetram":false,"betweenness_centrality":0.09497,"rank":32,"b_normalizado":0.6098,"categoria_b":"top16_50","banda_color":"#2980B9"}},{"type":"Feature","geometry":{"type":"Point","coordinates":[-99.160595819,19.30103758]},"properties":{"id":"(-99.160595819, 19.30103758)","nombre":"Imán/Circuito Azteca","indicador":"betweenness","layer":"b_puntos","sistema":"METRO","alcaldia_municipio":"Tlalpan","es_cetram":false,"betweenness_centrality":0.094587,"rank":33,"b_normalizado":0.6073,"categoria_b":"top16_50","banda_color":"#2980B9"}},{"type":"Feature","geometry":{"type":"Point","coordinates":[-99.154638075,19.294732604]},"properties":{"id":"(-99.154638075, 19.294732604)","nombre":"Huipulco","indicador":"betweenness","layer":"b_puntos","sistema":"METRO","alcaldia_municipio":"Tlalpan","es_cetram":false,"betweenness_centrality":0.094098,"rank":34,"b_normalizado":0.6042,"categoria_b":"top16_50","banda_color":"#2980B9"}},{"type":"Feature","geometry":{"type":"Point","coordinates":[-99.191521875,19.376272947]},"properties":{"id":"(-99.191521875, 19.376272947)","nombre":"Celini","indicador":"betweenness","layer":"b_puntos","sistema":"METRO","alcaldia_municipio":"Álvaro Obregón","es_cetram":false,"betweenness_centrality":0.093664,"rank":35,"b_normalizado":0.6014,"categoria_b":"top16_50","banda_color":"#2980B9"}},{"type":"Feature","geometry":{"type":"Point","coordinates":[-99.193938817,19.372102693]},"properties":{"id":"(-99.193938817, 19.372102693)","nombre":"Rosa Trepadora","indicador":"betweenness","layer":"b_puntos","sistema":"METRO","alcaldia_municipio":"Álvaro Obregón","es_cetram":false,"betweenness_centrality":0.093497,"rank":36,"b_normalizado":0.6003,"categoria_b":"top16_50","banda_color":"#2980B9"}},{"type":"Feature","geometry":{"type":"Point","coordinates":[-99.18873824,19.395538325]},"properties":{"id":"(-99.18873824, 19.395538325)","nombre":"11 de Abril","indicador":"betweenness","layer":"b_puntos","sistema":"METRO","alcaldia_municipio":"Benito Juárez","es_cetram":false,"betweenness_centrality":0.09268,"rank":37,"b_normalizado":0.5951,"categoria_b":"top16_50","banda_color":"#2980B9"}},{"type":"Feature","geometry":{"type":"Point","coordinates":[-99.1656,19.37085]},"properties":{"id":"(-99.1656, 19.37085)","nombre":"Zapata","indicador":"betweenness","layer":"b_puntos","sistema":"METRO","alcaldia_municipio":"Benito Juárez","es_cetram":false,"betweenness_centrality":0.091456,"rank":38,"b_normalizado":0.5872,"categoria_b":"top16_50","banda_color":"#2980B9"}},{"type":"Feature","geometry":{"type":"Point","coordinates":[-99.139,19.444]},"properties":{"id":"(-99.139, 19.444)","nombre":"Garibaldi y Lagunilla","indicador":"betweenness","layer":"b_puntos","sistema":"METRO","alcaldia_municipio":"Cuauhtémoc","es_cetram":false,"betweenness_centrality":0.09112,"rank":39,"b_normalizado":0.5851,"categoria_b":"top16_50","banda_color":"#2980B9"}},{"type":"Feature","geometry":{"type":"Point","coordinates":[-99.185859753,19.303159926]},"properties":{"id":"(-99.185859753, 19.303159926)","nombre":"Periférico Sur","indicador":"betweenness","layer":"b_puntos","sistema":"METRO","alcaldia_municipio":"Coyoacán","es_cetram":false,"betweenness_centrality":0.090024,"rank":40,"b_normalizado":0.578,"categoria_b":"top16_50","banda_color":"#2980B9"}},{"type":"Feature","geometry":{"type":"Point","coordinates":[-99.191148873,19.366922941]},"properties":{"id":"(-99.191148873, 19.366922941)","nombre":"Prepa 8","indicador":"betweenness","layer":"b_puntos","sistema":"METRO","alcaldia_municipio":"Álvaro Obregón","es_cetram":false,"betweenness_centrality":0.089544,"rank":41,"b_normalizado":0.5749,"categoria_b":"top16_50","banda_color":"#2980B9"}},{"type":"Feature","geometry":{"type":"Point","coordinates":[-99.199755776,19.304247671]},"properties":{"id":"(-99.199755776, 19.304247671)","nombre":"Jardines del Pedregal","indicador":"betweenness","layer":"b_puntos","sistema":"METRO","alcaldia_municipio":"Coyoacán","es_cetram":false,"betweenness_centrality":0.086878,"rank":42,"b_normalizado":0.5578,"categoria_b":"top16_50","banda_color":"#2980B9"}},{"type":"Feature","geometry":{"type":"Point","coordinates":[-99.204757324,19.305818199]},"properties":{"id":"(-99.204757324, 19.305818199)","nombre":"Ajusco","indicador":"betweenness","layer":"b_puntos","sistema":"METRO","alcaldia_municipio":"Coyoacán","es_cetram":false,"betweenness_centrality":0.086706,"rank":43,"b_normalizado":0.5567,"categoria_b":"top16_50","banda_color":"#2980B9"}},{"type":"Feature","geometry":{"type":"Point","coordinates":[-99.17280623,19.30302652]},"properties":{"id":"(-99.17280623, 19.30302652)","nombre":"Santa Ursula","indicador":"betweenness","layer":"b_puntos","sistema":"METRO","alcaldia_municipio":"Coyoacán","es_cetram":false,"betweenness_centrality":0.086342,"rank":44,"b_normalizado":0.5544,"categoria_b":"top16_50","banda_color":"#2980B9"}},{"type":"Feature","geometry":{"type":"Point","coordinates":[-99.147153433,19.285517187]},"properties":{"id":"(-99.147153433, 19.285517187)","nombre":"ESCA","indicador":"betweenness","layer":"b_puntos","sistema":"METRO","alcaldia_municipio":"Tlalpan","es_cetram":false,"betweenness_centrality":0.086221,"rank":45,"b_normalizado":0.5536,"categoria_b":"top16_50","banda_color":"#2980B9"}},{"type":"Feature","geometry":{"type":"Point","coordinates":[-99.181406533,19.303174614]},"properties":{"id":"(-99.181406533, 19.303174614)","nombre":"Cuicuilco","indicador":"betweenness","layer":"b_puntos","sistema":"METRO","alcaldia_municipio":"Tlalpan","es_cetram":false,"betweenness_centrality":0.085977,"rank":46,"b_normalizado":0.552,"categoria_b":"top16_50","banda_color":"#2980B9"}},{"type":"Feature","geometry":{"type":"Point","coordinates":[-99.16556443,19.302104803]},"properties":{"id":"(-99.16556443, 19.302104803)","nombre":"Gran Sur","indicador":"betweenness","layer":"b_puntos","sistema":"METRO","alcaldia_municipio":"Tlalpan","es_cetram":false,"betweenness_centrality":0.085634,"rank":47,"b_normalizado":0.5498,"categoria_b":"top16_50","banda_color":"#2980B9"}},{"type":"Feature","geometry":{"type":"Point","coordinates":[-99.141309524,19.282690238]},"properties":{"id":"(-99.141309524, 19.282690238)","nombre":"Tepepan","indicador":"betweenness","layer":"b_puntos","sistema":"METRO","alcaldia_municipio":"Tlalpan","es_cetram":false,"betweenness_centrality":0.080575,"rank":48,"b_normalizado":0.5174,"categoria_b":"top16_50","banda_color":"#2980B9"}},{"type":"Feature","geometry":{"type":"Point","coordinates":[-99.13264,19.42592]},"properties":{"id":"(-99.13264, 19.42592)","nombre":"Pino Suárez","indicador":"betweenness","layer":"b_puntos","sistema":"METRO","alcaldia_municipio":"Cuauhtémoc","es_cetram":false,"betweenness_centrality":0.076754,"rank":49,"b_normalizado":0.4928,"categoria_b":"top16_50","banda_color":"#2980B9"}},{"type":"Feature","geometry":{"type":"Point","coordinates":[-99.07451,19.31761]},"properties":{"id":"(-99.07451, 19.31761)","nombre":"Periférico Oriente","indicador":"betweenness","layer":"b_puntos","sistema":"METRO","alcaldia_municipio":"Iztapalapa","es_cetram":false,"betweenness_centrality":0.076553,"rank":50,"b_normalizado":0.4915,"categoria_b":"top16_50","banda_color":"#2980B9"}}]}