{"type": "FeatureCollection", "features": [{"type": "Feature", "properties": {"id": "(-99.06256, 19.34507)", "nombre": "Calz. Ermita Iztapalapa - Metro Constitución de 1917", "sistema": "RTP", "banda_baseline": "critico", "banda_mb": "critico", "banda_metro": "debil", "cambio_mb": "igual", "cambio_metro": "mejora"}, "geometry": {"type": "Point", "coordinates": [-99.06256, 19.34507]}}, {"type": "Feature", "properties": {"id": "(-99.06339, 19.34601)", "nombre": "Calz. Ermita Iztapalapa - Metro Constitución de 1917", "sistema": "RTP", "banda_baseline": "critico", "banda_mb": "critico", "banda_metro": "debil", "cambio_mb": "igual", "cambio_metro": "mejora"}, "geometry": {"type": "Point", "coordinates": [-99.06339, 19.34601]}}, {"type": "Feature", "properties": {"id": "(-99.0638, 19.34597)", "nombre": "Constitución de 1917", "sistema": "METRO", "banda_baseline": "debil", "banda_mb": "critico", "banda_metro": "debil", "cambio_mb": "empeora", "cambio_metro": "igual"}, "geometry": {"type": "Point", "coordinates": [-99.0638, 19.34597]}}, {"type": "Feature", "properties": {"id": "(-99.06411, 19.3457)", "nombre": "Constitución de 1917", "sistema": "TROLE", "banda_baseline": "critico", "banda_mb": "critico", "banda_metro": "debil", "cambio_mb": "igual", "cambio_metro": "mejora"}, "geometry": {"type": "Point", "coordinates": [-99.06411, 19.3457]}}, {"type": "Feature", "properties": {"id": "(-99.07451, 19.31761)", "nombre": "Periférico Oriente", "sistema": "METRO", "banda_baseline": "critico", "banda_mb": "debil", "banda_metro": "debil", "cambio_mb": "mejora", "cambio_metro": "mejora"}, "geometry": {"type": "Point", "coordinates": [-99.07451, 19.31761]}}, {"type": "Feature", "properties": {"id": "(-99.07482, 19.35106)", "nombre": "UAM-I", "sistema": "METRO", "banda_baseline": "critico", "banda_mb": "critico", "banda_metro": "debil", "cambio_mb": "igual", "cambio_metro": "mejora"}, "geometry": {"type": "Point", "coordinates": [-99.07482, 19.35106]}}, {"type": "Feature", "properties": {"id": "(-99.08239, 19.40719)", "nombre": "Puebla", "sistema": "METRO", "banda_baseline": "debil", "banda_mb": "critico", "banda_metro": "critico", "cambio_mb": "empeora", "cambio_metro": "empeora"}, "geometry": {"type": "Point", "coordinates": [-99.08239, 19.40719]}}, {"type": "Feature", "properties": {"id": "(-99.08587, 19.32047)", "nombre": "Calle 11", "sistema": "METRO", "banda_baseline": "critico", "banda_mb": "debil", "banda_metro": "debil", "cambio_mb": "mejora", "cambio_metro": "mejora"}, "geometry": {"type": "Point", "coordinates": [-99.08587, 19.32047]}}, {"type": "Feature", "properties": {"id": "(-99.13375, 19.41021)", "nombre": "Chabacano", "sistema": "METRO", "banda_baseline": "critico", "banda_mb": "critico", "banda_metro": "debil", "cambio_mb": "igual", "cambio_metro": "mejora"}, "geometry": {"type": "Point", "coordinates": [-99.13375, 19.41021]}}, {"type": "Feature", "properties": {"id": "(-99.13652, 19.46967)", "nombre": "La Raza", "sistema": "METRO", "banda_baseline": "debil", "banda_mb": "debil", "banda_metro": "critico", "cambio_mb": "igual", "cambio_metro": "empeora"}, "geometry": {"type": "Point", "coordinates": [-99.13652, 19.46967]}}, {"type": "Feature", "properties": {"id": "(-99.13781, 19.39521)", "nombre": "Xola", "sistema": "METRO", "banda_baseline": "debil", "banda_mb": "critico", "banda_metro": "critico", "cambio_mb": "empeora", "cambio_metro": "empeora"}, "geometry": {"type": "Point", "coordinates": [-99.13781, 19.39521]}}, {"type": "Feature", "properties": {"id": "(-99.13931, 19.32749)", "nombre": "Xotepingo", "sistema": "TL", "banda_baseline": "debil", "banda_mb": "debil", "banda_metro": "critico", "cambio_mb": "igual", "cambio_metro": "empeora"}, "geometry": {"type": "Point", "coordinates": [-99.13931, 19.32749]}}, {"type": "Feature", "properties": {"id": "(-99.14042, 19.43701)", "nombre": "Bellas Artes", "sistema": "METRO", "banda_baseline": "debil", "banda_mb": "debil", "banda_metro": "critico", "cambio_mb": "igual", "cambio_metro": "empeora"}, "geometry": {"type": "Point", "coordinates": [-99.14042, 19.43701]}}, {"type": "Feature", "properties": {"id": "(-99.14062, 19.33171)", "nombre": "La Virgen", "sistema": "TL", "banda_baseline": "debil", "banda_mb": "critico", "banda_metro": "critico", "cambio_mb": "empeora", "cambio_metro": "empeora"}, "geometry": {"type": "Point", "coordinates": [-99.14062, 19.33171]}}, {"type": "Feature", "properties": {"id": "(-99.14186, 19.33573)", "nombre": "Ciudad Jardín", "sistema": "TL", "banda_baseline": "debil", "banda_mb": "debil", "banda_metro": "critico", "cambio_mb": "igual", "cambio_metro": "empeora"}, "geometry": {"type": "Point", "coordinates": [-99.14186, 19.33573]}}, {"type": "Feature", "properties": {"id": "(-99.1429, 19.36198)", "nombre": "Ermita", "sistema": "METRO", "banda_baseline": "debil", "banda_mb": "critico", "banda_metro": "critico", "cambio_mb": "empeora", "cambio_metro": "empeora"}, "geometry": {"type": "Point", "coordinates": [-99.1429, 19.36198]}}, {"type": "Feature", "properties": {"id": "(-99.14379, 19.34128)", "nombre": "Calz. de Tlalpan - Candelaria", "sistema": "RTP", "banda_baseline": "debil", "banda_mb": "debil", "banda_metro": "critico", "cambio_mb": "igual", "cambio_metro": "empeora"}, "geometry": {"type": "Point", "coordinates": [-99.14379, 19.34128]}}, {"type": "Feature", "properties": {"id": "(-99.17015, 19.31219)", "nombre": "Av. Aztecas", "sistema": "RTP", "banda_baseline": "debil", "banda_mb": "critico", "banda_metro": "critico", "cambio_mb": "empeora", "cambio_metro": "empeora"}, "geometry": {"type": "Point", "coordinates": [-99.17015, 19.31219]}}, {"type": "Feature", "properties": {"id": "(-99.18764, 19.40251)", "nombre": "Tacubaya", "sistema": "METRO", "banda_baseline": "critico", "banda_mb": "critico", "banda_metro": "debil", "cambio_mb": "igual", "cambio_metro": "mejora"}, "geometry": {"type": "Point", "coordinates": [-99.18764, 19.40251]}}, {"type": "Feature", "properties": {"id": "(-99.190016, 19.361767)", "nombre": "Base CETRAM Barranca del Muerto", "sistema": "CC", "banda_baseline": "critico", "banda_mb": "debil", "banda_metro": "debil", "cambio_mb": "mejora", "cambio_metro": "mejora"}, "geometry": {"type": "Point", "coordinates": [-99.190016, 19.361767]}}, {"type": "Feature", "properties": {"id": "(-99.1912, 19.36178)", "nombre": "Periférico - Barranca del Muerto", "sistema": "CC", "banda_baseline": "critico", "banda_mb": "debil", "banda_metro": "debil", "cambio_mb": "mejora", "cambio_metro": "mejora"}, "geometry": {"type": "Point", "coordinates": [-99.1912, 19.36178]}}, {"type": "Feature", "properties": {"id": "(-99.2208, 19.32122)", "nombre": "Periférico - Luis Cabrera", "sistema": "RTP", "banda_baseline": "critico", "banda_mb": "critico", "banda_metro": "debil", "cambio_mb": "igual", "cambio_metro": "mejora"}, "geometry": {"type": "Point", "coordinates": [-99.2208, 19.32122]}}]}