{"type":"FeatureCollection","crs":{"type":"name","properties":{"name":"urn:ogc:def:crs:EPSG::4326"}},"features":[{"type":"Feature","geometry":{"type":"Point","coordinates":[-99.18675,19.40219]},"properties":{"id":"(-99.18675, 19.40219)","nombre":"Tacubaya","indicador":"betweenness","layer":"b_puntos","sistema":"METRO","alcaldia_municipio":"Miguel Hidalgo","es_cetram":false,"betweenness_centrality":0.217897,"rank":1,"b_normalizado":1.0,"categoria_b":"top5","banda_color":"#C0392B"}},{"type":"Feature","geometry":{"type":"Point","coordinates":[-99.18758,19.37626]},"properties":{"id":"(-99.18758, 19.37626)","nombre":"Mixcoac","indicador":"betweenness","layer":"b_puntos","sistema":"METRO","alcaldia_municipio":"Benito Juárez","es_cetram":false,"betweenness_centrality":0.172534,"rank":2,"b_normalizado":0.7918,"categoria_b":"top5","banda_color":"#C0392B"}},{"type":"Feature","geometry":{"type":"Point","coordinates":[-99.14678,19.43738]},"properties":{"id":"(-99.14678, 19.43738)","nombre":"Hidalgo","indicador":"betweenness","layer":"b_puntos","sistema":"METRO","alcaldia_municipio":"Cuauhtémoc","es_cetram":false,"betweenness_centrality":0.159489,"rank":3,"b_normalizado":0.7319,"categoria_b":"top5","banda_color":"#C0392B"}},{"type":"Feature","geometry":{"type":"Point","coordinates":[-99.14906,19.42648]},"properties":{"id":"(-99.14906, 19.42648)","nombre":"Balderas","indicador":"betweenness","layer":"b_puntos","sistema":"METRO","alcaldia_municipio":"Cuauhtémoc","es_cetram":false,"betweenness_centrality":0.143275,"rank":4,"b_normalizado":0.6575,"categoria_b":"top5","banda_color":"#C0392B"}},{"type":"Feature","geometry":{"type":"Point","coordinates":[-99.14463,19.40722]},"properties":{"id":"(-99.14463, 19.40722)","nombre":"Lázaro Cárdenas","indicador":"betweenness","layer":"b_puntos","sistema":"METRO","alcaldia_municipio":"Cuauhtémoc","es_cetram":false,"betweenness_centrality":0.137647,"rank":5,"b_normalizado":0.6317,"categoria_b":"top5","banda_color":"#C0392B"}},{"type":"Feature","geometry":{"type":"Point","coordinates":[-99.16852,19.40593]},"properties":{"id":"(-99.16852, 19.40593)","nombre":"Chilpancingo","indicador":"betweenness","layer":"b_puntos","sistema":"METRO","alcaldia_municipio":"Cuauhtémoc","es_cetram":false,"betweenness_centrality":0.136623,"rank":6,"b_normalizado":0.627,"categoria_b":"top6_15","banda_color":"#E67E22"}},{"type":"Feature","geometry":{"type":"Point","coordinates":[-99.1369,19.40087]},"properties":{"id":"(-99.1369, 19.40087)","nombre":"Viaducto","indicador":"betweenness","layer":"b_puntos","sistema":"METRO","alcaldia_municipio":"Benito Juárez","es_cetram":false,"betweenness_centrality":0.134566,"rank":7,"b_normalizado":0.6176,"categoria_b":"top6_15","banda_color":"#E67E22"}},{"type":"Feature","geometry":{"type":"Point","coordinates":[-99.13896,19.38758]},"properties":{"id":"(-99.13896, 19.38758)","nombre":"Villa de Cortés","indicador":"betweenness","layer":"b_puntos","sistema":"METRO","alcaldia_municipio":"Benito Juárez","es_cetram":false,"betweenness_centrality":0.134099,"rank":8,"b_normalizado":0.6154,"categoria_b":"top6_15","banda_color":"#E67E22"}},{"type":"Feature","geometry":{"type":"Point","coordinates":[-99.14002,19.38005]},"properties":{"id":"(-99.14002, 19.38005)","nombre":"Nativitas","indicador":"betweenness","layer":"b_puntos","sistema":"METRO","alcaldia_municipio":"Benito Juárez","es_cetram":false,"betweenness_centrality":0.129946,"rank":9,"b_normalizado":0.5964,"categoria_b":"top6_15","banda_color":"#E67E22"}},{"type":"Feature","geometry":{"type":"Point","coordinates":[-99.16451,19.37119]},"properties":{"id":"(-99.16451, 19.37119)","nombre":"Zapata","indicador":"betweenness","layer":"b_puntos","sistema":"METRO","alcaldia_municipio":"Benito Juárez","es_cetram":false,"betweenness_centrality":0.128317,"rank":10,"b_normalizado":0.5889,"categoria_b":"top6_15","banda_color":"#E67E22"}},{"type":"Feature","geometry":{"type":"Point","coordinates":[-99.14157,19.36992]},"properties":{"id":"(-99.14157, 19.36992)","nombre":"Portales","indicador":"betweenness","layer":"b_puntos","sistema":"METRO","alcaldia_municipio":"Benito Juárez","es_cetram":false,"betweenness_centrality":0.128288,"rank":11,"b_normalizado":0.5888,"categoria_b":"top6_15","banda_color":"#E67E22"}},{"type":"Feature","geometry":{"type":"Point","coordinates":[-99.13816,19.32379]},"properties":{"id":"(-99.13816, 19.32379)","nombre":"Nezahualpilli","indicador":"betweenness","layer":"b_puntos","sistema":"TL","alcaldia_municipio":"Coyoacán","es_cetram":false,"betweenness_centrality":0.12812,"rank":12,"b_normalizado":0.588,"categoria_b":"top6_15","banda_color":"#E67E22"}},{"type":"Feature","geometry":{"type":"Point","coordinates":[-99.14062,19.33171]},"properties":{"id":"(-99.14062, 19.33171)","nombre":"La Virgen","indicador":"betweenness","layer":"b_puntos","sistema":"TL","alcaldia_municipio":"Coyoacán","es_cetram":false,"betweenness_centrality":0.127303,"rank":13,"b_normalizado":0.5842,"categoria_b":"top6_15","banda_color":"#E67E22"}},{"type":"Feature","geometry":{"type":"Point","coordinates":[-99.14186,19.33573]},"properties":{"id":"(-99.14186, 19.33573)","nombre":"Ciudad Jardín","indicador":"betweenness","layer":"b_puntos","sistema":"TL","alcaldia_municipio":"Coyoacán","es_cetram":false,"betweenness_centrality":0.127246,"rank":14,"b_normalizado":0.584,"categoria_b":"top6_15","banda_color":"#E67E22"}},{"type":"Feature","geometry":{"type":"Point","coordinates":[-99.13931,19.32749]},"properties":{"id":"(-99.13931, 19.32749)","nombre":"Xotepingo","indicador":"betweenness","layer":"b_puntos","sistema":"TL","alcaldia_municipio":"Coyoacán","es_cetram":false,"betweenness_centrality":0.1271,"rank":15,"b_normalizado":0.5833,"categoria_b":"top6_15","banda_color":"#E67E22"}},{"type":"Feature","geometry":{"type":"Point","coordinates":[-99.18926,19.3615]},"properties":{"id":"(-99.18926, 19.3615)","nombre":"Barranca del Muerto","indicador":"betweenness","layer":"b_puntos","sistema":"METRO","alcaldia_municipio":"Álvaro Obregón","es_cetram":false,"betweenness_centrality":0.119989,"rank":16,"b_normalizado":0.5507,"categoria_b":"top16_50","banda_color":"#2980B9"}},{"type":"Feature","geometry":{"type":"Point","coordinates":[-99.139,19.444]},"properties":{"id":"(-99.139, 19.444)","nombre":"Garibaldi y Lagunilla","indicador":"betweenness","layer":"b_puntos","sistema":"METRO","alcaldia_municipio":"Cuauhtémoc","es_cetram":false,"betweenness_centrality":0.119933,"rank":17,"b_normalizado":0.5504,"categoria_b":"top16_50","banda_color":"#2980B9"}},{"type":"Feature","geometry":{"type":"Point","coordinates":[-99.13562,19.40918]},"properties":{"id":"(-99.13562, 19.40918)","nombre":"Chabacano","indicador":"betweenness","layer":"b_puntos","sistema":"METRO","alcaldia_municipio":"Cuauhtémoc","es_cetram":false,"betweenness_centrality":0.119002,"rank":18,"b_normalizado":0.5461,"categoria_b":"top16_50","banda_color":"#2980B9"}},{"type":"Feature","geometry":{"type":"Point","coordinates":[-99.14501,19.35324]},"properties":{"id":"(-99.14501, 19.35324)","nombre":"General Anaya","indicador":"betweenness","layer":"b_puntos","sistema":"METRO","alcaldia_municipio":"Coyoacán","es_cetram":false,"betweenness_centrality":0.118321,"rank":19,"b_normalizado":0.543,"categoria_b":"top16_50","banda_color":"#2980B9"}},{"type":"Feature","geometry":{"type":"Point","coordinates":[-99.14344,19.34082]},"properties":{"id":"(-99.14344, 19.34082)","nombre":"Las Torres","indicador":"betweenness","layer":"b_puntos","sistema":"TL","alcaldia_municipio":"Coyoacán","es_cetram":false,"betweenness_centrality":0.114861,"rank":20,"b_normalizado":0.5271,"categoria_b":"top16_50","banda_color":"#2980B9"}},{"type":"Feature","geometry":{"type":"Point","coordinates":[-99.1572,19.38617]},"properties":{"id":"(-99.1572, 19.38617)","nombre":"Eugenia","indicador":"betweenness","layer":"b_puntos","sistema":"METRO","alcaldia_municipio":"Benito Juárez","es_cetram":false,"betweenness_centrality":0.109489,"rank":21,"b_normalizado":0.5025,"categoria_b":"top16_50","banda_color":"#2980B9"}},{"type":"Feature","geometry":{"type":"Point","coordinates":[-99.15603,19.39592]},"properties":{"id":"(-99.15603, 19.39592)","nombre":"Etiopía y Plaza de la Transparencia","indicador":"betweenness","layer":"b_puntos","sistema":"METRO","alcaldia_municipio":"Benito Juárez","es_cetram":false,"betweenness_centrality":0.105423,"rank":22,"b_normalizado":0.4838,"categoria_b":"top16_50","banda_color":"#2980B9"}},{"type":"Feature","geometry":{"type":"Point","coordinates":[-99.14494,19.35276]},"properties":{"id":"(-99.14494, 19.35276)","nombre":"Calz. de Tlalpan - Metro General Anaya","indicador":"betweenness","layer":"b_puntos","sistema":"RTP","alcaldia_municipio":"Coyoacán","es_cetram":false,"betweenness_centrality":0.102962,"rank":23,"b_normalizado":0.4725,"categoria_b":"top16_50","banda_color":"#2980B9"}},{"type":"Feature","geometry":{"type":"Point","coordinates":[-99.14313,19.45506]},"properties":{"id":"(-99.14313, 19.45506)","nombre":"Tlatelolco","indicador":"betweenness","layer":"b_puntos","sistema":"METRO","alcaldia_municipio":"Cuauhtémoc","es_cetram":false,"betweenness_centrality":0.102952,"rank":24,"b_normalizado":0.4725,"categoria_b":"top16_50","banda_color":"#2980B9"}},{"type":"Feature","geometry":{"type":"Point","coordinates":[-99.14572,19.34922]},"properties":{"id":"(-99.14572, 19.34922)","nombre":"Calz. de Tlalpan - Mártires Irlandeses","indicador":"betweenness","layer":"b_puntos","sistema":"RTP","alcaldia_municipio":"Coyoacán","es_cetram":false,"betweenness_centrality":0.102794,"rank":25,"b_normalizado":0.4718,"categoria_b":"top16_50","banda_color":"#2980B9"}},{"type":"Feature","geometry":{"type":"Point","coordinates":[-99.14448,19.34565]},"properties":{"id":"(-99.14448, 19.34565)","nombre":"Cerro de Jesús","indicador":"betweenness","layer":"b_puntos","sistema":"RTP","alcaldia_municipio":"Coyoacán","es_cetram":false,"betweenness_centrality":0.102361,"rank":26,"b_normalizado":0.4698,"categoria_b":"top16_50","banda_color":"#2980B9"}},{"type":"Feature","geometry":{"type":"Point","coordinates":[-99.13264,19.42592]},"properties":{"id":"(-99.13264, 19.42592)","nombre":"Pino Suárez","indicador":"betweenness","layer":"b_puntos","sistema":"METRO","alcaldia_municipio":"Cuauhtémoc","es_cetram":false,"betweenness_centrality":0.102187,"rank":27,"b_normalizado":0.469,"categoria_b":"top16_50","banda_color":"#2980B9"}},{"type":"Feature","geometry":{"type":"Point","coordinates":[-99.19135,19.41177]},"properties":{"id":"(-99.19135, 19.41177)","nombre":"Constituyentes","indicador":"betweenness","layer":"b_puntos","sistema":"METRO","alcaldia_municipio":"Miguel Hidalgo","es_cetram":false,"betweenness_centrality":0.101497,"rank":28,"b_normalizado":0.4658,"categoria_b":"top16_50","banda_color":"#2980B9"}},{"type":"Feature","geometry":{"type":"Point","coordinates":[-99.14422,19.34445]},"properties":{"id":"(-99.14422, 19.34445)","nombre":"Puerto Rico - Calz. de Tlalpan","indicador":"betweenness","layer":"b_puntos","sistema":"RTP","alcaldia_municipio":"Coyoacán","es_cetram":false,"betweenness_centrality":0.101401,"rank":29,"b_normalizado":0.4654,"categoria_b":"top16_50","banda_color":"#2980B9"}},{"type":"Feature","geometry":{"type":"Point","coordinates":[-99.14379,19.34128]},"properties":{"id":"(-99.14379, 19.34128)","nombre":"Calz. de Tlalpan - Candelaria","indicador":"betweenness","layer":"b_puntos","sistema":"RTP","alcaldia_municipio":"Coyoacán","es_cetram":false,"betweenness_centrality":0.101313,"rank":30,"b_normalizado":0.465,"categoria_b":"top16_50","banda_color":"#2980B9"}},{"type":"Feature","geometry":{"type":"Point","coordinates":[-99.15325,19.41376]},"properties":{"id":"(-99.15325, 19.41376)","nombre":"Hospital General","indicador":"betweenness","layer":"b_puntos","sistema":"METRO","alcaldia_municipio":"Cuauhtémoc","es_cetram":false,"betweenness_centrality":0.101024,"rank":31,"b_normalizado":0.4636,"categoria_b":"top16_50","banda_color":"#2980B9"}},{"type":"Feature","geometry":{"type":"Point","coordinates":[-99.18661,19.38434]},"properties":{"id":"(-99.18661, 19.38434)","nombre":"San Antonio","indicador":"betweenness","layer":"b_puntos","sistema":"METRO","alcaldia_municipio":"Benito Juárez","es_cetram":false,"betweenness_centrality":0.098365,"rank":32,"b_normalizado":0.4514,"categoria_b":"top16_50","banda_color":"#2980B9"}},{"type":"Feature","geometry":{"type":"Point","coordinates":[-99.12235,19.4091]},"properties":{"id":"(-99.12235, 19.4091)","nombre":"Jamaica","indicador":"betweenness","layer":"b_puntos","sistema":"METRO","alcaldia_municipio":"Venustiano Carranza","es_cetram":false,"betweenness_centrality":0.098158,"rank":33,"b_normalizado":0.4505,"categoria_b":"top16_50","banda_color":"#2980B9"}},{"type":"Feature","geometry":{"type":"Point","coordinates":[-99.11297,19.40837]},"properties":{"id":"(-99.11297, 19.40837)","nombre":"Mixiuhca","indicador":"betweenness","layer":"b_puntos","sistema":"METRO","alcaldia_municipio":"Venustiano Carranza","es_cetram":false,"betweenness_centrality":0.096958,"rank":34,"b_normalizado":0.445,"categoria_b":"top16_50","banda_color":"#2980B9"}},{"type":"Feature","geometry":{"type":"Point","coordinates":[-99.15603,19.40656]},"properties":{"id":"(-99.15603, 19.40656)","nombre":"Centro Médico","indicador":"betweenness","layer":"b_puntos","sistema":"METRO","alcaldia_municipio":"Cuauhtémoc","es_cetram":false,"betweenness_centrality":0.094464,"rank":35,"b_normalizado":0.4335,"categoria_b":"top16_50","banda_color":"#2980B9"}},{"type":"Feature","geometry":{"type":"Point","coordinates":[-99.13879,19.31795]},"properties":{"id":"(-99.13879, 19.31795)","nombre":"Registro Federal","indicador":"betweenness","layer":"b_puntos","sistema":"TL","alcaldia_municipio":"Coyoacán","es_cetram":false,"betweenness_centrality":0.093257,"rank":36,"b_normalizado":0.428,"categoria_b":"top16_50","banda_color":"#2980B9"}},{"type":"Feature","geometry":{"type":"Point","coordinates":[-99.14161,19.43638]},"properties":{"id":"(-99.14161, 19.43638)","nombre":"Bellas Artes","indicador":"betweenness","layer":"b_puntos","sistema":"METRO","alcaldia_municipio":"Cuauhtémoc","es_cetram":false,"betweenness_centrality":0.09263,"rank":37,"b_normalizado":0.4251,"categoria_b":"top16_50","banda_color":"#2980B9"}},{"type":"Feature","geometry":{"type":"Point","coordinates":[-99.14519,19.44473]},"properties":{"id":"(-99.14519, 19.44473)","nombre":"Guerrero","indicador":"betweenness","layer":"b_puntos","sistema":"METRO","alcaldia_municipio":"Cuauhtémoc","es_cetram":false,"betweenness_centrality":0.091407,"rank":38,"b_normalizado":0.4195,"categoria_b":"top16_50","banda_color":"#2980B9"}},{"type":"Feature","geometry":{"type":"Point","coordinates":[-99.17892,19.40611]},"properties":{"id":"(-99.17892, 19.40611)","nombre":"Patriotismo","indicador":"betweenness","layer":"b_puntos","sistema":"METRO","alcaldia_municipio":"Cuauhtémoc","es_cetram":false,"betweenness_centrality":0.091032,"rank":39,"b_normalizado":0.4178,"categoria_b":"top16_50","banda_color":"#2980B9"}},{"type":"Feature","geometry":{"type":"Point","coordinates":[-99.15872,19.37066]},"properties":{"id":"(-99.15872, 19.37066)","nombre":"Parque de los Venados","indicador":"betweenness","layer":"b_puntos","sistema":"METRO","alcaldia_municipio":"Benito Juárez","es_cetram":false,"betweenness_centrality":0.090554,"rank":40,"b_normalizado":0.4156,"categoria_b":"top16_50","banda_color":"#2980B9"}},{"type":"Feature","geometry":{"type":"Point","coordinates":[-99.13023,19.44322]},"properties":{"id":"(-99.13023, 19.44322)","nombre":"Lagunilla","indicador":"betweenness","layer":"b_puntos","sistema":"METRO","alcaldia_municipio":"Cuauhtémoc","es_cetram":false,"betweenness_centrality":0.089585,"rank":41,"b_normalizado":0.4111,"categoria_b":"top16_50","banda_color":"#2980B9"}},{"type":"Feature","geometry":{"type":"Point","coordinates":[-99.08722,19.44569]},"properties":{"id":"(-99.08722, 19.44569)","nombre":"Oceanía","indicador":"betweenness","layer":"b_puntos","sistema":"METRO","alcaldia_municipio":"Venustiano Carranza","es_cetram":false,"betweenness_centrality":0.088324,"rank":42,"b_normalizado":0.4053,"categoria_b":"top16_50","banda_color":"#2980B9"}},{"type":"Feature","geometry":{"type":"Point","coordinates":[-99.13951,19.46888]},"properties":{"id":"(-99.13951, 19.46888)","nombre":"La Raza","indicador":"betweenness","layer":"b_puntos","sistema":"METRO","alcaldia_municipio":"Gustavo A. Madero","es_cetram":false,"betweenness_centrality":0.087762,"rank":43,"b_normalizado":0.4028,"categoria_b":"top16_50","banda_color":"#2980B9"}},{"type":"Feature","geometry":{"type":"Point","coordinates":[-99.17088,19.37201]},"properties":{"id":"(-99.17088, 19.37201)","nombre":"Hospital 20 de Noviembre","indicador":"betweenness","layer":"b_puntos","sistema":"METRO","alcaldia_municipio":"Benito Juárez","es_cetram":false,"betweenness_centrality":0.087222,"rank":44,"b_normalizado":0.4003,"categoria_b":"top16_50","banda_color":"#2980B9"}},{"type":"Feature","geometry":{"type":"Point","coordinates":[-99.0942,19.44084]},"properties":{"id":"(-99.0942, 19.44084)","nombre":"Romero Rubio","indicador":"betweenness","layer":"b_puntos","sistema":"METRO","alcaldia_municipio":"Venustiano Carranza","es_cetram":false,"betweenness_centrality":0.087072,"rank":45,"b_normalizado":0.3996,"categoria_b":"top16_50","banda_color":"#2980B9"}},{"type":"Feature","geometry":{"type":"Point","coordinates":[-99.11957,19.43917]},"properties":{"id":"(-99.11957, 19.43917)","nombre":"Morelos","indicador":"betweenness","layer":"b_puntos","sistema":"METRO","alcaldia_municipio":"Venustiano Carranza","es_cetram":false,"betweenness_centrality":0.08694,"rank":46,"b_normalizado":0.399,"categoria_b":"top16_50","banda_color":"#2980B9"}},{"type":"Feature","geometry":{"type":"Point","coordinates":[-99.13687,19.43556]},"properties":{"id":"(-99.13687, 19.43556)","nombre":"Allende","indicador":"betweenness","layer":"b_puntos","sistema":"METRO","alcaldia_municipio":"Cuauhtémoc","es_cetram":false,"betweenness_centrality":0.085959,"rank":47,"b_normalizado":0.3945,"categoria_b":"top16_50","banda_color":"#2980B9"}},{"type":"Feature","geometry":{"type":"Point","coordinates":[-99.10371,19.43657]},"properties":{"id":"(-99.10371, 19.43657)","nombre":"Ricardo Flores Magón","indicador":"betweenness","layer":"b_puntos","sistema":"METRO","alcaldia_municipio":"Venustiano Carranza","es_cetram":false,"betweenness_centrality":0.084404,"rank":48,"b_normalizado":0.3874,"categoria_b":"top16_50","banda_color":"#2980B9"}},{"type":"Feature","geometry":{"type":"Point","coordinates":[-99.16066,19.4419]},"properties":{"id":"(-99.16066, 19.4419)","nombre":"San Cosme","indicador":"betweenness","layer":"b_puntos","sistema":"METRO","alcaldia_municipio":"Cuauhtémoc","es_cetram":false,"betweenness_centrality":0.08413,"rank":49,"b_normalizado":0.3861,"categoria_b":"top16_50","banda_color":"#2980B9"}},{"type":"Feature","geometry":{"type":"Point","coordinates":[-99.14185,19.42772]},"properties":{"id":"(-99.14185, 19.42772)","nombre":"Salto del Agua","indicador":"betweenness","layer":"b_puntos","sistema":"METRO","alcaldia_municipio":"Cuauhtémoc","es_cetram":false,"betweenness_centrality":0.082359,"rank":50,"b_normalizado":0.378,"categoria_b":"top16_50","banda_color":"#2980B9"}}]}