{"type":"FeatureCollection","crs":{"type":"name","properties":{"name":"urn:ogc:def:crs:EPSG::4326"}},"features":[{"type":"Feature","geometry":{"type":"Point","coordinates":[-99.18675,19.40219]},"properties":{"id":"(-99.18675, 19.40219)","nombre":"Tacubaya","indicador":"betweenness","layer":"b_puntos","sistema":"METRO","alcaldia_municipio":"Miguel Hidalgo","es_cetram":false,"betweenness_centrality":0.216314,"rank":1,"b_normalizado":1.0,"categoria_b":"top5","banda_color":"#C0392B"}},{"type":"Feature","geometry":{"type":"Point","coordinates":[-99.18758,19.37626]},"properties":{"id":"(-99.18758, 19.37626)","nombre":"Mixcoac","indicador":"betweenness","layer":"b_puntos","sistema":"METRO","alcaldia_municipio":"Benito Juárez","es_cetram":false,"betweenness_centrality":0.183899,"rank":2,"b_normalizado":0.8501,"categoria_b":"top5","banda_color":"#C0392B"}},{"type":"Feature","geometry":{"type":"Point","coordinates":[-99.14678,19.43738]},"properties":{"id":"(-99.14678, 19.43738)","nombre":"Hidalgo","indicador":"betweenness","layer":"b_puntos","sistema":"METRO","alcaldia_municipio":"Cuauhtémoc","es_cetram":false,"betweenness_centrality":0.146034,"rank":3,"b_normalizado":0.6751,"categoria_b":"top5","banda_color":"#C0392B"}},{"type":"Feature","geometry":{"type":"Point","coordinates":[-99.14906,19.42648]},"properties":{"id":"(-99.14906, 19.42648)","nombre":"Balderas","indicador":"betweenness","layer":"b_puntos","sistema":"METRO","alcaldia_municipio":"Cuauhtémoc","es_cetram":false,"betweenness_centrality":0.138785,"rank":4,"b_normalizado":0.6416,"categoria_b":"top5","banda_color":"#C0392B"}},{"type":"Feature","geometry":{"type":"Point","coordinates":[-99.14463,19.40722]},"properties":{"id":"(-99.14463, 19.40722)","nombre":"Lázaro Cárdenas","indicador":"betweenness","layer":"b_puntos","sistema":"METRO","alcaldia_municipio":"Cuauhtémoc","es_cetram":false,"betweenness_centrality":0.136121,"rank":5,"b_normalizado":0.6293,"categoria_b":"top5","banda_color":"#C0392B"}},{"type":"Feature","geometry":{"type":"Point","coordinates":[-99.16852,19.40593]},"properties":{"id":"(-99.16852, 19.40593)","nombre":"Chilpancingo","indicador":"betweenness","layer":"b_puntos","sistema":"METRO","alcaldia_municipio":"Cuauhtémoc","es_cetram":false,"betweenness_centrality":0.135105,"rank":6,"b_normalizado":0.6246,"categoria_b":"top6_15","banda_color":"#E67E22"}},{"type":"Feature","geometry":{"type":"Point","coordinates":[-99.139,19.444]},"properties":{"id":"(-99.139, 19.444)","nombre":"Garibaldi y Lagunilla","indicador":"betweenness","layer":"b_puntos","sistema":"METRO","alcaldia_municipio":"Cuauhtémoc","es_cetram":false,"betweenness_centrality":0.131813,"rank":7,"b_normalizado":0.6094,"categoria_b":"top6_15","banda_color":"#E67E22"}},{"type":"Feature","geometry":{"type":"Point","coordinates":[-99.1656,19.37085]},"properties":{"id":"(-99.1656, 19.37085)","nombre":"Zapata","indicador":"betweenness","layer":"b_puntos","sistema":"METRO","alcaldia_municipio":"Benito Juárez","es_cetram":false,"betweenness_centrality":0.127685,"rank":8,"b_normalizado":0.5903,"categoria_b":"top6_15","banda_color":"#E67E22"}},{"type":"Feature","geometry":{"type":"Point","coordinates":[-99.18926,19.3615]},"properties":{"id":"(-99.18926, 19.3615)","nombre":"Barranca del Muerto","indicador":"betweenness","layer":"b_puntos","sistema":"METRO","alcaldia_municipio":"Álvaro Obregón","es_cetram":false,"betweenness_centrality":0.121552,"rank":9,"b_normalizado":0.5619,"categoria_b":"top6_15","banda_color":"#E67E22"}},{"type":"Feature","geometry":{"type":"Point","coordinates":[-99.15142,19.36134]},"properties":{"id":"(-99.15142, 19.36134)","nombre":"Eje Central","indicador":"betweenness","layer":"b_puntos","sistema":"METRO","alcaldia_municipio":"Benito Juárez","es_cetram":false,"betweenness_centrality":0.111957,"rank":10,"b_normalizado":0.5176,"categoria_b":"top6_15","banda_color":"#E67E22"}},{"type":"Feature","geometry":{"type":"Point","coordinates":[-99.1572,19.38617]},"properties":{"id":"(-99.1572, 19.38617)","nombre":"Eugenia","indicador":"betweenness","layer":"b_puntos","sistema":"METRO","alcaldia_municipio":"Benito Juárez","es_cetram":false,"betweenness_centrality":0.108488,"rank":11,"b_normalizado":0.5015,"categoria_b":"top6_15","banda_color":"#E67E22"}},{"type":"Feature","geometry":{"type":"Point","coordinates":[-99.1369,19.40087]},"properties":{"id":"(-99.1369, 19.40087)","nombre":"Viaducto","indicador":"betweenness","layer":"b_puntos","sistema":"METRO","alcaldia_municipio":"Benito Juárez","es_cetram":false,"betweenness_centrality":0.106193,"rank":12,"b_normalizado":0.4909,"categoria_b":"top6_15","banda_color":"#E67E22"}},{"type":"Feature","geometry":{"type":"Point","coordinates":[-99.13896,19.38758]},"properties":{"id":"(-99.13896, 19.38758)","nombre":"Villa de Cortés","indicador":"betweenness","layer":"b_puntos","sistema":"METRO","alcaldia_municipio":"Benito Juárez","es_cetram":false,"betweenness_centrality":0.105617,"rank":13,"b_normalizado":0.4883,"categoria_b":"top6_15","banda_color":"#E67E22"}},{"type":"Feature","geometry":{"type":"Point","coordinates":[-99.15603,19.39592]},"properties":{"id":"(-99.15603, 19.39592)","nombre":"Etiopía y Plaza de la Transparencia","indicador":"betweenness","layer":"b_puntos","sistema":"METRO","alcaldia_municipio":"Benito Juárez","es_cetram":false,"betweenness_centrality":0.104685,"rank":14,"b_normalizado":0.4839,"categoria_b":"top6_15","banda_color":"#E67E22"}},{"type":"Feature","geometry":{"type":"Point","coordinates":[-99.14157,19.36992]},"properties":{"id":"(-99.14157, 19.36992)","nombre":"Portales","indicador":"betweenness","layer":"b_puntos","sistema":"METRO","alcaldia_municipio":"Benito Juárez","es_cetram":false,"betweenness_centrality":0.100579,"rank":15,"b_normalizado":0.465,"categoria_b":"top6_15","banda_color":"#E67E22"}},{"type":"Feature","geometry":{"type":"Point","coordinates":[-99.13023,19.44322]},"properties":{"id":"(-99.13023, 19.44322)","nombre":"Lagunilla","indicador":"betweenness","layer":"b_puntos","sistema":"METRO","alcaldia_municipio":"Cuauhtémoc","es_cetram":false,"betweenness_centrality":0.100559,"rank":16,"b_normalizado":0.4649,"categoria_b":"top16_50","banda_color":"#2980B9"}},{"type":"Feature","geometry":{"type":"Point","coordinates":[-99.08722,19.44569]},"properties":{"id":"(-99.08722, 19.44569)","nombre":"Oceanía","indicador":"betweenness","layer":"b_puntos","sistema":"METRO","alcaldia_municipio":"Venustiano Carranza","es_cetram":false,"betweenness_centrality":0.100382,"rank":17,"b_normalizado":0.4641,"categoria_b":"top16_50","banda_color":"#2980B9"}},{"type":"Feature","geometry":{"type":"Point","coordinates":[-99.15325,19.41376]},"properties":{"id":"(-99.15325, 19.41376)","nombre":"Hospital General","indicador":"betweenness","layer":"b_puntos","sistema":"METRO","alcaldia_municipio":"Cuauhtémoc","es_cetram":false,"betweenness_centrality":0.100223,"rank":18,"b_normalizado":0.4633,"categoria_b":"top16_50","banda_color":"#2980B9"}},{"type":"Feature","geometry":{"type":"Point","coordinates":[-99.11957,19.43917]},"properties":{"id":"(-99.11957, 19.43917)","nombre":"Morelos","indicador":"betweenness","layer":"b_puntos","sistema":"METRO","alcaldia_municipio":"Venustiano Carranza","es_cetram":false,"betweenness_centrality":0.100163,"rank":19,"b_normalizado":0.463,"categoria_b":"top16_50","banda_color":"#2980B9"}},{"type":"Feature","geometry":{"type":"Point","coordinates":[-99.18661,19.38434]},"properties":{"id":"(-99.18661, 19.38434)","nombre":"San Antonio","indicador":"betweenness","layer":"b_puntos","sistema":"METRO","alcaldia_municipio":"Benito Juárez","es_cetram":false,"betweenness_centrality":0.09983,"rank":20,"b_normalizado":0.4615,"categoria_b":"top16_50","banda_color":"#2980B9"}},{"type":"Feature","geometry":{"type":"Point","coordinates":[-99.10371,19.43657]},"properties":{"id":"(-99.10371, 19.43657)","nombre":"Ricardo Flores Magón","indicador":"betweenness","layer":"b_puntos","sistema":"METRO","alcaldia_municipio":"Venustiano Carranza","es_cetram":false,"betweenness_centrality":0.097649,"rank":21,"b_normalizado":0.4514,"categoria_b":"top16_50","banda_color":"#2980B9"}},{"type":"Feature","geometry":{"type":"Point","coordinates":[-99.19135,19.41177]},"properties":{"id":"(-99.19135, 19.41177)","nombre":"Constituyentes","indicador":"betweenness","layer":"b_puntos","sistema":"METRO","alcaldia_municipio":"Miguel Hidalgo","es_cetram":false,"betweenness_centrality":0.09737,"rank":22,"b_normalizado":0.4501,"categoria_b":"top16_50","banda_color":"#2980B9"}},{"type":"Feature","geometry":{"type":"Point","coordinates":[-99.14313,19.45506]},"properties":{"id":"(-99.14313, 19.45506)","nombre":"Tlatelolco","indicador":"betweenness","layer":"b_puntos","sistema":"METRO","alcaldia_municipio":"Cuauhtémoc","es_cetram":false,"betweenness_centrality":0.093212,"rank":23,"b_normalizado":0.4309,"categoria_b":"top16_50","banda_color":"#2980B9"}},{"type":"Feature","geometry":{"type":"Point","coordinates":[-99.13562,19.40918]},"properties":{"id":"(-99.13562, 19.40918)","nombre":"Chabacano","indicador":"betweenness","layer":"b_puntos","sistema":"METRO","alcaldia_municipio":"Cuauhtémoc","es_cetram":false,"betweenness_centrality":0.091467,"rank":24,"b_normalizado":0.4228,"categoria_b":"top16_50","banda_color":"#2980B9"}},{"type":"Feature","geometry":{"type":"Point","coordinates":[-99.14501,19.35324]},"properties":{"id":"(-99.14501, 19.35324)","nombre":"General Anaya","indicador":"betweenness","layer":"b_puntos","sistema":"METRO","alcaldia_municipio":"Coyoacán","es_cetram":false,"betweenness_centrality":0.091219,"rank":25,"b_normalizado":0.4217,"categoria_b":"top16_50","banda_color":"#2980B9"}},{"type":"Feature","geometry":{"type":"Point","coordinates":[-99.12235,19.4091]},"properties":{"id":"(-99.12235, 19.4091)","nombre":"Jamaica","indicador":"betweenness","layer":"b_puntos","sistema":"METRO","alcaldia_municipio":"Venustiano Carranza","es_cetram":false,"betweenness_centrality":0.090944,"rank":26,"b_normalizado":0.4204,"categoria_b":"top16_50","banda_color":"#2980B9"}},{"type":"Feature","geometry":{"type":"Point","coordinates":[-99.15603,19.40656]},"properties":{"id":"(-99.15603, 19.40656)","nombre":"Centro Médico","indicador":"betweenness","layer":"b_puntos","sistema":"METRO","alcaldia_municipio":"Cuauhtémoc","es_cetram":false,"betweenness_centrality":0.088902,"rank":27,"b_normalizado":0.411,"categoria_b":"top16_50","banda_color":"#2980B9"}},{"type":"Feature","geometry":{"type":"Point","coordinates":[-99.17088,19.37201]},"properties":{"id":"(-99.17088, 19.37201)","nombre":"Hospital 20 de Noviembre","indicador":"betweenness","layer":"b_puntos","sistema":"METRO","alcaldia_municipio":"Benito Juárez","es_cetram":false,"betweenness_centrality":0.087059,"rank":28,"b_normalizado":0.4025,"categoria_b":"top16_50","banda_color":"#2980B9"}},{"type":"Feature","geometry":{"type":"Point","coordinates":[-99.190016,19.361767]},"properties":{"id":"(-99.190016, 19.361767)","nombre":"Base CETRAM Barranca del Muerto","indicador":"betweenness","layer":"b_puntos","sistema":"CC","alcaldia_municipio":"Álvaro Obregón","es_cetram":true,"betweenness_centrality":0.086203,"rank":29,"b_normalizado":0.3985,"categoria_b":"top16_50","banda_color":"#2980B9"}},{"type":"Feature","geometry":{"type":"Point","coordinates":[-99.12314,19.35776]},"properties":{"id":"(-99.12314, 19.35776)","nombre":"Mexicaltzingo","indicador":"betweenness","layer":"b_puntos","sistema":"METRO","alcaldia_municipio":"Coyoacán","es_cetram":false,"betweenness_centrality":0.086127,"rank":30,"b_normalizado":0.3982,"categoria_b":"top16_50","banda_color":"#2980B9"}},{"type":"Feature","geometry":{"type":"Point","coordinates":[-99.17892,19.40611]},"properties":{"id":"(-99.17892, 19.40611)","nombre":"Patriotismo","indicador":"betweenness","layer":"b_puntos","sistema":"METRO","alcaldia_municipio":"Cuauhtémoc","es_cetram":false,"betweenness_centrality":0.085786,"rank":31,"b_normalizado":0.3966,"categoria_b":"top16_50","banda_color":"#2980B9"}},{"type":"Feature","geometry":{"type":"Point","coordinates":[-99.14519,19.44473]},"properties":{"id":"(-99.14519, 19.44473)","nombre":"Guerrero","indicador":"betweenness","layer":"b_puntos","sistema":"METRO","alcaldia_municipio":"Cuauhtémoc","es_cetram":false,"betweenness_centrality":0.085687,"rank":32,"b_normalizado":0.3961,"categoria_b":"top16_50","banda_color":"#2980B9"}},{"type":"Feature","geometry":{"type":"Point","coordinates":[-99.14125,19.43158]},"properties":{"id":"(-99.14125, 19.43158)","nombre":"San Juan de Letrán","indicador":"betweenness","layer":"b_puntos","sistema":"METRO","alcaldia_municipio":"Cuauhtémoc","es_cetram":false,"betweenness_centrality":0.084821,"rank":33,"b_normalizado":0.3921,"categoria_b":"top16_50","banda_color":"#2980B9"}},{"type":"Feature","geometry":{"type":"Point","coordinates":[-99.14344,19.34082]},"properties":{"id":"(-99.14344, 19.34082)","nombre":"Las Torres","indicador":"betweenness","layer":"b_puntos","sistema":"TL","alcaldia_municipio":"Coyoacán","es_cetram":false,"betweenness_centrality":0.083511,"rank":34,"b_normalizado":0.3861,"categoria_b":"top16_50","banda_color":"#2980B9"}},{"type":"Feature","geometry":{"type":"Point","coordinates":[-99.14161,19.43638]},"properties":{"id":"(-99.14161, 19.43638)","nombre":"Bellas Artes","indicador":"betweenness","layer":"b_puntos","sistema":"METRO","alcaldia_municipio":"Cuauhtémoc","es_cetram":false,"betweenness_centrality":0.082788,"rank":35,"b_normalizado":0.3827,"categoria_b":"top16_50","banda_color":"#2980B9"}},{"type":"Feature","geometry":{"type":"Point","coordinates":[-99.13951,19.46888]},"properties":{"id":"(-99.13951, 19.46888)","nombre":"La Raza","indicador":"betweenness","layer":"b_puntos","sistema":"METRO","alcaldia_municipio":"Gustavo A. Madero","es_cetram":false,"betweenness_centrality":0.081754,"rank":36,"b_normalizado":0.3779,"categoria_b":"top16_50","banda_color":"#2980B9"}},{"type":"Feature","geometry":{"type":"Point","coordinates":[-99.11297,19.40837]},"properties":{"id":"(-99.11297, 19.40837)","nombre":"Mixiuhca","indicador":"betweenness","layer":"b_puntos","sistema":"METRO","alcaldia_municipio":"Venustiano Carranza","es_cetram":false,"betweenness_centrality":0.079095,"rank":37,"b_normalizado":0.3656,"categoria_b":"top16_50","banda_color":"#2980B9"}},{"type":"Feature","geometry":{"type":"Point","coordinates":[-99.14186,19.33573]},"properties":{"id":"(-99.14186, 19.33573)","nombre":"Ciudad Jardín","indicador":"betweenness","layer":"b_puntos","sistema":"TL","alcaldia_municipio":"Coyoacán","es_cetram":false,"betweenness_centrality":0.07908,"rank":38,"b_normalizado":0.3656,"categoria_b":"top16_50","banda_color":"#2980B9"}},{"type":"Feature","geometry":{"type":"Point","coordinates":[-99.13264,19.42592]},"properties":{"id":"(-99.13264, 19.42592)","nombre":"Pino Suárez","indicador":"betweenness","layer":"b_puntos","sistema":"METRO","alcaldia_municipio":"Cuauhtémoc","es_cetram":false,"betweenness_centrality":0.078399,"rank":39,"b_normalizado":0.3624,"categoria_b":"top16_50","banda_color":"#2980B9"}},{"type":"Feature","geometry":{"type":"Point","coordinates":[-99.11348,19.3983]},"properties":{"id":"(-99.11348, 19.3983)","nombre":"Coyuya","indicador":"betweenness","layer":"b_puntos","sistema":"METRO","alcaldia_municipio":"Iztacalco","es_cetram":true,"betweenness_centrality":0.07637,"rank":40,"b_normalizado":0.3531,"categoria_b":"top16_50","banda_color":"#2980B9"}},{"type":"Feature","geometry":{"type":"Point","coordinates":[-99.10452,19.32815]},"properties":{"id":"(-99.10452, 19.32815)","nombre":"San Andrés Tomatlán","indicador":"betweenness","layer":"b_puntos","sistema":"METRO","alcaldia_municipio":"Iztapalapa","es_cetram":false,"betweenness_centrality":0.074646,"rank":41,"b_normalizado":0.3451,"categoria_b":"top16_50","banda_color":"#2980B9"}},{"type":"Feature","geometry":{"type":"Point","coordinates":[-99.13687,19.43556]},"properties":{"id":"(-99.13687, 19.43556)","nombre":"Allende","indicador":"betweenness","layer":"b_puntos","sistema":"METRO","alcaldia_municipio":"Cuauhtémoc","es_cetram":false,"betweenness_centrality":0.074481,"rank":42,"b_normalizado":0.3443,"categoria_b":"top16_50","banda_color":"#2980B9"}},{"type":"Feature","geometry":{"type":"Point","coordinates":[-99.17112,19.42185]},"properties":{"id":"(-99.17112, 19.42185)","nombre":"Sevilla","indicador":"betweenness","layer":"b_puntos","sistema":"METRO","alcaldia_municipio":"Cuauhtémoc","es_cetram":false,"betweenness_centrality":0.074345,"rank":43,"b_normalizado":0.3437,"categoria_b":"top16_50","banda_color":"#2980B9"}},{"type":"Feature","geometry":{"type":"Point","coordinates":[-99.1912,19.36178]},"properties":{"id":"(-99.1912, 19.36178)","nombre":"Periférico - Barranca del Muerto","indicador":"betweenness","layer":"b_puntos","sistema":"CC","alcaldia_municipio":"Álvaro Obregón","es_cetram":false,"betweenness_centrality":0.074099,"rank":44,"b_normalizado":0.3426,"categoria_b":"top16_50","banda_color":"#2980B9"}},{"type":"Feature","geometry":{"type":"Point","coordinates":[-99.14379,19.34128]},"properties":{"id":"(-99.14379, 19.34128)","nombre":"Calz. de Tlalpan - Candelaria","indicador":"betweenness","layer":"b_puntos","sistema":"RTP","alcaldia_municipio":"Coyoacán","es_cetram":false,"betweenness_centrality":0.073507,"rank":45,"b_normalizado":0.3398,"categoria_b":"top16_50","banda_color":"#2980B9"}},{"type":"Feature","geometry":{"type":"Point","coordinates":[-99.1546,19.42566]},"properties":{"id":"(-99.1546, 19.42566)","nombre":"Cuauhtémoc","indicador":"betweenness","layer":"b_puntos","sistema":"METRO","alcaldia_municipio":"Cuauhtémoc","es_cetram":false,"betweenness_centrality":0.071631,"rank":46,"b_normalizado":0.3311,"categoria_b":"top16_50","banda_color":"#2980B9"}},{"type":"Feature","geometry":{"type":"Point","coordinates":[-99.16066,19.4419]},"properties":{"id":"(-99.16066, 19.4419)","nombre":"San Cosme","indicador":"betweenness","layer":"b_puntos","sistema":"METRO","alcaldia_municipio":"Cuauhtémoc","es_cetram":false,"betweenness_centrality":0.070976,"rank":47,"b_normalizado":0.3281,"categoria_b":"top16_50","banda_color":"#2980B9"}},{"type":"Feature","geometry":{"type":"Point","coordinates":[-99.188,19.37612]},"properties":{"id":"(-99.188, 19.37612)","nombre":"Mixcoac Norte","indicador":"betweenness","layer":"b_puntos","sistema":"TROLE","alcaldia_municipio":"Benito Juárez","es_cetram":true,"betweenness_centrality":0.070398,"rank":48,"b_normalizado":0.3254,"categoria_b":"top16_50","banda_color":"#2980B9"}},{"type":"Feature","geometry":{"type":"Point","coordinates":[-99.18697,19.37568]},"properties":{"id":"(-99.18697, 19.37568)","nombre":"Patriotismo","indicador":"betweenness","layer":"b_puntos","sistema":"TROLE","alcaldia_municipio":"Benito Juárez","es_cetram":false,"betweenness_centrality":0.067161,"rank":49,"b_normalizado":0.3105,"categoria_b":"top16_50","banda_color":"#2980B9"}},{"type":"Feature","geometry":{"type":"Point","coordinates":[-99.14185,19.42772]},"properties":{"id":"(-99.14185, 19.42772)","nombre":"Salto del Agua","indicador":"betweenness","layer":"b_puntos","sistema":"METRO","alcaldia_municipio":"Cuauhtémoc","es_cetram":false,"betweenness_centrality":0.06602,"rank":50,"b_normalizado":0.3052,"categoria_b":"top16_50","banda_color":"#2980B9"}}]}